KUIPER-00089            
1 64834U 25151U   25259.27949138  .00046740  00000+0  12804-2 0  9992
2 64834  51.8801 348.5055 0008447  25.8629 334.2778 15.36818610  9524
KUIPER-00090            
1 64835U 25151V   25259.28970350  .00037001  00000+0  10273-2 0  9992
2 64835  51.8805 348.5666 0007312  23.6872 336.4450 15.36519258  9520
KUIPER-00091            
1 64836U 25151W   25259.26680803  .00040698  00000+0  11114-2 0  9993
2 64836  51.8781 348.4145 0007473   0.9400 359.1599 15.36987899  9524
KUIPER-00092            
1 64837U 25151X   25259.25002315 -.01319535  00000+0 -53745-1 0  9996
2 64837  51.8823 348.8738 0009387   2.6403  89.3965 15.26962003  5885
KUIPER-00093            
1 64838U 25151Y   25259.25002315 -.00749538  00000+0 -36978-1 0  9995
2 64838  51.8855 349.5890 0011468  26.2320  33.7758 15.19865119  3053
KUIPER-00094            
1 64839U 25151Z   25258.87778314 -.00136719  00000+0 -37921-2 0  9993
2 64839  51.8786 350.3030 0007844  12.1093 348.0080 15.36829077  9460
KUIPER-00081            
1 65132U 25171A   25258.32945728  .00106810  00000+0  29169-2 0  9999
2 65132  51.8741 236.7320 0003401 247.5338 112.5289 15.36551832  6607
KUIPER-00088            
1 65133U 25171B   25259.24021621  .00054777  00000+0  15075-2 0  9994
2 65133  51.8752 232.3381 0004108 243.8117 116.2447 15.36630703  6745
