<?xml version="1.0" encoding="UTF-8"?>
<ndm xmlns:xsi="http://www.w3.org/2001/XMLSchema-instance" xsi:noNamespaceSchemaLocation="https://sanaregistry.org/r/ndmxml_unqualified/ndmxml-2.0.0-master-2.0.xsd">
<omm id="CCSDS_OMM_VERS" version="2.0">
<header><CREATION_DATE/><ORIGINATOR/></header><body><segment><metadata><OBJECT_NAME>KUIPER-00089</OBJECT_NAME><OBJECT_ID>2025-151U</OBJECT_ID><CENTER_NAME>EARTH</CENTER_NAME><REF_FRAME>TEME</REF_FRAME><TIME_SYSTEM>UTC</TIME_SYSTEM><MEAN_ELEMENT_THEORY>SGP4</MEAN_ELEMENT_THEORY></metadata><data><meanElements><EPOCH>2025-09-16T06:42:28.055232</EPOCH><MEAN_MOTION>15.36818610</MEAN_MOTION><ECCENTRICITY>.00084476</ECCENTRICITY><INCLINATION>51.8801</INCLINATION><RA_OF_ASC_NODE>348.5055</RA_OF_ASC_NODE><ARG_OF_PERICENTER>25.8629</ARG_OF_PERICENTER><MEAN_ANOMALY>334.2778</MEAN_ANOMALY></meanElements><tleParameters><EPHEMERIS_TYPE>0</EPHEMERIS_TYPE><CLASSIFICATION_TYPE>U</CLASSIFICATION_TYPE><NORAD_CAT_ID>64834</NORAD_CAT_ID><ELEMENT_SET_NO>999</ELEMENT_SET_NO><REV_AT_EPOCH>952</REV_AT_EPOCH><BSTAR>.12804311E-2</BSTAR><MEAN_MOTION_DOT>.4674E-3</MEAN_MOTION_DOT><MEAN_MOTION_DDOT>0</MEAN_MOTION_DDOT></tleParameters></data></segment></body></omm>
<omm id="CCSDS_OMM_VERS" version="2.0">
<header><CREATION_DATE/><ORIGINATOR/></header><body><segment><metadata><OBJECT_NAME>KUIPER-00090</OBJECT_NAME><OBJECT_ID>2025-151V</OBJECT_ID><CENTER_NAME>EARTH</CENTER_NAME><REF_FRAME>TEME</REF_FRAME><TIME_SYSTEM>UTC</TIME_SYSTEM><MEAN_ELEMENT_THEORY>SGP4</MEAN_ELEMENT_THEORY></metadata><data><meanElements><EPOCH>2025-09-16T06:57:10.382400</EPOCH><MEAN_MOTION>15.36519258</MEAN_MOTION><ECCENTRICITY>.00073123</ECCENTRICITY><INCLINATION>51.8805</INCLINATION><RA_OF_ASC_NODE>348.5666</RA_OF_ASC_NODE><ARG_OF_PERICENTER>23.6872</ARG_OF_PERICENTER><MEAN_ANOMALY>336.4450</MEAN_ANOMALY></meanElements><tleParameters><EPHEMERIS_TYPE>0</EPHEMERIS_TYPE><CLASSIFICATION_TYPE>U</CLASSIFICATION_TYPE><NORAD_CAT_ID>64835</NORAD_CAT_ID><ELEMENT_SET_NO>999</ELEMENT_SET_NO><REV_AT_EPOCH>952</REV_AT_EPOCH><BSTAR>.10272653E-2</BSTAR><MEAN_MOTION_DOT>.37001E-3</MEAN_MOTION_DOT><MEAN_MOTION_DDOT>0</MEAN_MOTION_DDOT></tleParameters></data></segment></body></omm>
<omm id="CCSDS_OMM_VERS" version="2.0">
<header><CREATION_DATE/><ORIGINATOR/></header><body><segment><metadata><OBJECT_NAME>KUIPER-00091</OBJECT_NAME><OBJECT_ID>2025-151W</OBJECT_ID><CENTER_NAME>EARTH</CENTER_NAME><REF_FRAME>TEME</REF_FRAME><TIME_SYSTEM>UTC</TIME_SYSTEM><MEAN_ELEMENT_THEORY>SGP4</MEAN_ELEMENT_THEORY></metadata><data><meanElements><EPOCH>2025-09-16T06:24:12.213792</EPOCH><MEAN_MOTION>15.36987899</MEAN_MOTION><ECCENTRICITY>.0007473</ECCENTRICITY><INCLINATION>51.8781</INCLINATION><RA_OF_ASC_NODE>348.4145</RA_OF_ASC_NODE><ARG_OF_PERICENTER>0.9400</ARG_OF_PERICENTER><MEAN_ANOMALY>359.1599</MEAN_ANOMALY></meanElements><tleParameters><EPHEMERIS_TYPE>0</EPHEMERIS_TYPE><CLASSIFICATION_TYPE>U</CLASSIFICATION_TYPE><NORAD_CAT_ID>64836</NORAD_CAT_ID><ELEMENT_SET_NO>999</ELEMENT_SET_NO><REV_AT_EPOCH>952</REV_AT_EPOCH><BSTAR>.11113647E-2</BSTAR><MEAN_MOTION_DOT>.40698E-3</MEAN_MOTION_DOT><MEAN_MOTION_DDOT>0</MEAN_MOTION_DDOT></tleParameters></data></segment></body></omm>
<omm id="CCSDS_OMM_VERS" version="2.0">
<header><CREATION_DATE/><ORIGINATOR/></header><body><segment><metadata><OBJECT_NAME>KUIPER-00092</OBJECT_NAME><OBJECT_ID>2025-151X</OBJECT_ID><CENTER_NAME>EARTH</CENTER_NAME><REF_FRAME>TEME</REF_FRAME><TIME_SYSTEM>UTC</TIME_SYSTEM><MEAN_ELEMENT_THEORY>SGP4</MEAN_ELEMENT_THEORY></metadata><data><meanElements><EPOCH>2025-09-16T06:00:02.000160</EPOCH><MEAN_MOTION>15.26962003</MEAN_MOTION><ECCENTRICITY>.00093873</ECCENTRICITY><INCLINATION>51.8823</INCLINATION><RA_OF_ASC_NODE>348.8738</RA_OF_ASC_NODE><ARG_OF_PERICENTER>2.6403</ARG_OF_PERICENTER><MEAN_ANOMALY>89.3965</MEAN_ANOMALY></meanElements><tleParameters><EPHEMERIS_TYPE>0</EPHEMERIS_TYPE><CLASSIFICATION_TYPE>U</CLASSIFICATION_TYPE><NORAD_CAT_ID>64837</NORAD_CAT_ID><ELEMENT_SET_NO>999</ELEMENT_SET_NO><REV_AT_EPOCH>588</REV_AT_EPOCH><BSTAR>-.53745019E-1</BSTAR><MEAN_MOTION_DOT>-.1319535E-1</MEAN_MOTION_DOT><MEAN_MOTION_DDOT>0</MEAN_MOTION_DDOT></tleParameters></data></segment></body></omm>
<omm id="CCSDS_OMM_VERS" version="2.0">
<header><CREATION_DATE/><ORIGINATOR/></header><body><segment><metadata><OBJECT_NAME>KUIPER-00093</OBJECT_NAME><OBJECT_ID>2025-151Y</OBJECT_ID><CENTER_NAME>EARTH</CENTER_NAME><REF_FRAME>TEME</REF_FRAME><TIME_SYSTEM>UTC</TIME_SYSTEM><MEAN_ELEMENT_THEORY>SGP4</MEAN_ELEMENT_THEORY></metadata><data><meanElements><EPOCH>2025-09-16T06:00:02.000160</EPOCH><MEAN_MOTION>15.19865119</MEAN_MOTION><ECCENTRICITY>.0011468</ECCENTRICITY><INCLINATION>51.8855</INCLINATION><RA_OF_ASC_NODE>349.5890</RA_OF_ASC_NODE><ARG_OF_PERICENTER>26.2320</ARG_OF_PERICENTER><MEAN_ANOMALY>33.7758</MEAN_ANOMALY></meanElements><tleParameters><EPHEMERIS_TYPE>0</EPHEMERIS_TYPE><CLASSIFICATION_TYPE>U</CLASSIFICATION_TYPE><NORAD_CAT_ID>64838</NORAD_CAT_ID><ELEMENT_SET_NO>999</ELEMENT_SET_NO><REV_AT_EPOCH>305</REV_AT_EPOCH><BSTAR>-.36977598E-1</BSTAR><MEAN_MOTION_DOT>-.749538E-2</MEAN_MOTION_DOT><MEAN_MOTION_DDOT>0</MEAN_MOTION_DDOT></tleParameters></data></segment></body></omm>
<omm id="CCSDS_OMM_VERS" version="2.0">
<header><CREATION_DATE/><ORIGINATOR/></header><body><segment><metadata><OBJECT_NAME>KUIPER-00094</OBJECT_NAME><OBJECT_ID>2025-151Z</OBJECT_ID><CENTER_NAME>EARTH</CENTER_NAME><REF_FRAME>TEME</REF_FRAME><TIME_SYSTEM>UTC</TIME_SYSTEM><MEAN_ELEMENT_THEORY>SGP4</MEAN_ELEMENT_THEORY></metadata><data><meanElements><EPOCH>2025-09-15T21:04:00.463296</EPOCH><MEAN_MOTION>15.36829077</MEAN_MOTION><ECCENTRICITY>.00078448</ECCENTRICITY><INCLINATION>51.8786</INCLINATION><RA_OF_ASC_NODE>350.3030</RA_OF_ASC_NODE><ARG_OF_PERICENTER>12.1093</ARG_OF_PERICENTER><MEAN_ANOMALY>348.0080</MEAN_ANOMALY></meanElements><tleParameters><EPHEMERIS_TYPE>0</EPHEMERIS_TYPE><CLASSIFICATION_TYPE>U</CLASSIFICATION_TYPE><NORAD_CAT_ID>64839</NORAD_CAT_ID><ELEMENT_SET_NO>999</ELEMENT_SET_NO><REV_AT_EPOCH>946</REV_AT_EPOCH><BSTAR>-.37921035E-2</BSTAR><MEAN_MOTION_DOT>-.136719E-2</MEAN_MOTION_DOT><MEAN_MOTION_DDOT>0</MEAN_MOTION_DDOT></tleParameters></data></segment></body></omm>
<omm id="CCSDS_OMM_VERS" version="2.0">
<header><CREATION_DATE/><ORIGINATOR/></header><body><segment><metadata><OBJECT_NAME>KUIPER-00081</OBJECT_NAME><OBJECT_ID>2025-171A</OBJECT_ID><CENTER_NAME>EARTH</CENTER_NAME><REF_FRAME>TEME</REF_FRAME><TIME_SYSTEM>UTC</TIME_SYSTEM><MEAN_ELEMENT_THEORY>SGP4</MEAN_ELEMENT_THEORY></metadata><data><meanElements><EPOCH>2025-09-15T07:54:25.108992</EPOCH><MEAN_MOTION>15.36551832</MEAN_MOTION><ECCENTRICITY>.0003401</ECCENTRICITY><INCLINATION>51.8741</INCLINATION><RA_OF_ASC_NODE>236.7320</RA_OF_ASC_NODE><ARG_OF_PERICENTER>247.5338</ARG_OF_PERICENTER><MEAN_ANOMALY>112.5289</MEAN_ANOMALY></meanElements><tleParameters><EPHEMERIS_TYPE>0</EPHEMERIS_TYPE><CLASSIFICATION_TYPE>U</CLASSIFICATION_TYPE><NORAD_CAT_ID>65132</NORAD_CAT_ID><ELEMENT_SET_NO>999</ELEMENT_SET_NO><REV_AT_EPOCH>660</REV_AT_EPOCH><BSTAR>.29168946E-2</BSTAR><MEAN_MOTION_DOT>.10681E-2</MEAN_MOTION_DOT><MEAN_MOTION_DDOT>0</MEAN_MOTION_DDOT></tleParameters></data></segment></body></omm>
<omm id="CCSDS_OMM_VERS" version="2.0">
<header><CREATION_DATE/><ORIGINATOR/></header><body><segment><metadata><OBJECT_NAME>KUIPER-00088</OBJECT_NAME><OBJECT_ID>2025-171B</OBJECT_ID><CENTER_NAME>EARTH</CENTER_NAME><REF_FRAME>TEME</REF_FRAME><TIME_SYSTEM>UTC</TIME_SYSTEM><MEAN_ELEMENT_THEORY>SGP4</MEAN_ELEMENT_THEORY></metadata><data><meanElements><EPOCH>2025-09-16T05:45:54.680544</EPOCH><MEAN_MOTION>15.36630703</MEAN_MOTION><ECCENTRICITY>.00041089</ECCENTRICITY><INCLINATION>51.8752</INCLINATION><RA_OF_ASC_NODE>232.3381</RA_OF_ASC_NODE><ARG_OF_PERICENTER>243.8117</ARG_OF_PERICENTER><MEAN_ANOMALY>116.2447</MEAN_ANOMALY></meanElements><tleParameters><EPHEMERIS_TYPE>0</EPHEMERIS_TYPE><CLASSIFICATION_TYPE>U</CLASSIFICATION_TYPE><NORAD_CAT_ID>65133</NORAD_CAT_ID><ELEMENT_SET_NO>999</ELEMENT_SET_NO><REV_AT_EPOCH>674</REV_AT_EPOCH><BSTAR>.15074818E-2</BSTAR><MEAN_MOTION_DOT>.54777E-3</MEAN_MOTION_DOT><MEAN_MOTION_DDOT>0</MEAN_MOTION_DDOT></tleParameters></data></segment></body></omm>

</ndm>
